MEAN_MOTION;ECCENTRICITY;INCLINATION;RA_OF_ASC_NODE;ARG_OF_PERICENTER;MEAN_ANOMALY;BSTAR;MEAN_MOTION_DOT;MEAN_MOTION_DDOT;TYPE
14.34218531;0.0002681;86.3962;52.712;90.1647;269.9856;2.532E-5;9.1E-7;0;Iridium
14.34218594;0.000268;86.3963;52.5077;89.9447;270.2056;2.5194E-5;9.0E-7;0;Iridium
14.34218656;0.0002685;86.3964;52.3036;89.5214;270.6289;2.4175E-5;8.7E-7;0;Iridium
14.34218722;0.0002683;86.3965;52.0703;88.8258;271.3245;2.3179E-5;8.5E-7;0;Iridium
14.34218722;0.0002683;86.3965;52.0703;88.8258;271.3245;2.3179E-5;8.5E-7;0;Iridium
14.34218743;0.0002686;86.3966;51.8953;88.5868;271.5635;2.0715E-5;7.8E-7;0;Iridium
14.34218767;0.0002685;86.3967;51.6619;88.1951;271.9552;1.7746E-5;6.9E-7;0;Iridium
14.34218826;0.0002684;86.3968;51.487;87.9047;272.2456;1.7615E-5;6.9E-7;0;Iridium
14.34218917;0.0002683;86.3969;51.2536;87.6287;272.5216;1.7761E-5;7.0E-7;0;Iridium
14.34219036;0.0002677;86.3971;50.8453;86.7587;273.3915;1.6844E-5;6.7E-7;0;Iridium
14.34219059;0.0002681;86.3972;50.6411;86.5919;273.5584;1.4812E-5;6.1E-7;0;Iridium
14.34219141;0.000267;86.3973;50.4369;86.0261;274.124;1.6067E-5;6.5E-7;0;Iridium
14.34219138;0.0002682;86.3974;50.2037;86.1436;274.0066;1.4146E-5;5.9E-7;0;Iridium
14.34219253;0.0002684;86.3974;49.9994;85.6471;274.5032;1.792E-5;7.0E-7;0;Iridium
14.34219253;0.0002684;86.3974;49.9994;85.6471;274.5032;1.792E-5;7.0E-7;0;Iridium
14.342193;0.0002694;86.3975;49.7952;85.7076;274.4428;1.843E-5;7.1E-7;0;Iridium
14.34219324;0.0002702;86.3976;49.3869;84.9353;275.2151;1.6233E-5;6.5E-7;0;Iridium
14.34219337;0.0002705;86.3977;49.0953;84.2098;275.9406;1.567E-5;6.4E-7;0;Iridium
14.34219358;0.0002701;86.3978;49.0079;84.1656;275.9848;1.5946E-5;6.4E-7;0;Iridium
14.34219413;0.0002699;86.3979;48.7163;83.6232;276.5271;1.6266E-5;6.5E-7;0;Iridium
14.34219469;0.0002693;86.398;48.5414;83.3343;276.8159;1.725E-5;6.8E-7;0;Iridium
14.34219608;0.0002682;86.3981;48.279;82.9742;277.1759;2.4217E-5;8.8E-7;0;Iridium
14.34219603;0.0002681;86.3982;48.1332;82.7655;277.3845;2.1072E-5;7.9E-7;0;Iridium
14.34215353;0.0002679;86.3982;47.8708;82.1087;278.0413;2.2297E-5;8.2E-7;0;Iridium
14.34215339;0.000268;86.3982;47.8417;82.0506;278.0993;2.2475E-5;8.3E-7;0;Iridium
14.34215375;0.0002669;86.3983;47.6959;82.0889;278.061;2.187E-5;8.1E-7;0;Iridium
14.34215326;0.0002662;86.3984;47.4626;81.7484;278.4013;4.2235E-6;3.2E-7;0;Iridium
14.34215319;0.0002662;86.3984;47.4335;81.7059;278.4439;4.3693E-6;3.2E-7;0;Iridium
14.34215336;0.0002654;86.3984;47.2877;81.5275;278.6222;3.8269E-6;3.0E-7;0;Iridium
14.34215352;0.0002643;86.3985;47.0837;81.2131;278.9364;3.8537E-6;3.1E-7;0;Iridium
14.34215415;0.0002635;86.3986;46.8796;80.9506;279.1988;7.866E-6;4.2E-7;0;Iridium
14.34215591;0.0002627;86.3987;46.6173;80.6642;279.4851;1.7567E-5;6.9E-7;0;Iridium
14.34215591;0.0002627;86.3987;46.6173;80.6642;279.4851;1.7567E-5;6.9E-7;0;Iridium
14.34215619;0.0002622;86.3988;46.4424;80.3355;279.8136;1.5485E-5;6.3E-7;0;Iridium
14.3421571;0.0002614;86.3989;46.1801;79.9846;280.1645;1.7375E-5;6.8E-7;0;Iridium
14.34215752;0.0002606;86.3989;46.0343;79.7558;280.3931;1.6257E-5;6.5E-7;0;Iridium
14.3421586;0.0002599;86.3991;45.8012;79.6539;280.4949;1.8912E-5;7.3E-7;0;Iridium
14.34215881;0.0002596;86.3991;45.6263;79.3639;280.7849;1.6479E-5;6.6E-7;0;Iridium
14.34215956;0.0002587;86.3992;45.364;79.1721;280.9766;1.7056E-5;6.8E-7;0;Iridium
14.34215956;0.0002587;86.3992;45.364;79.1721;280.9766;1.7056E-5;6.8E-7;0;Iridium
14.34215968;0.0002584;86.3993;45.1891;78.9696;281.179;1.4914E-5;6.2E-7;0;Iridium
14.3421599;0.0002574;86.3994;44.956;78.5876;281.5609;1.2704E-5;5.5E-7;0;Iridium
14.34216024;0.0002566;86.3995;44.7811;78.3593;281.7891;1.2209E-5;5.4E-7;0;Iridium
14.34216038;0.0002557;86.3997;44.5188;77.9187;282.2295;1.0462E-5;4.9E-7;0;Iridium
14.34216061;0.0002548;86.3997;44.3731;77.7655;282.3826;9.2466E-6;4.6E-7;0;Iridium
14.34216128;0.0002536;86.3998;44.1108;77.4758;282.6721;1.1668E-5;5.2E-7;0;Iridium
14.34216133;0.0002535;86.3998;44.0817;77.4391;282.7088;1.2036E-5;5.3E-7;0;Iridium
14.34216176;0.0002526;86.3999;43.936;77.2507;282.8971;1.313E-5;5.7E-7;0;Iridium
14.34216234;0.0002514;86.4;43.7611;76.9865;283.1612;1.4984E-5;6.2E-7;0;Iridium
14.34216274;0.0002503;86.4;43.528;76.774;283.3735;1.541E-5;6.3E-7;0;Iridium
14.34216274;0.0002503;86.4;43.528;76.774;283.3735;1.541E-5;6.3E-7;0;Iridium
14.34216454;0.0002479;86.4002;43.1201;76.2146;283.9325;2.1188E-5;7.9E-7;0;Iridium
14.34216566;0.0002464;86.4002;42.9161;75.9612;284.1857;2.4934E-5;9.0E-7;0;Iridium
14.34216566;0.0002464;86.4002;42.9161;75.9612;284.1857;2.4934E-5;9.0E-7;0;Iridium
14.34216641;0.0002453;86.4002;42.7121;75.7685;284.3784;2.6166E-5;9.3E-7;0;Iridium
14.34216715;0.0002437;86.4003;42.5082;75.5461;284.6005;2.7539E-5;9.7E-7;0;Iridium
14.34216769;0.0002426;86.4004;42.2751;75.2194;284.927;2.6506E-5;9.4E-7;0;Iridium
14.34216836;0.000241;86.4004;42.1003;75.1978;284.9485;2.734E-5;9.6E-7;0;Iridium
14.34216922;0.0002399;86.4004;41.8672;75.089;285.0572;2.7433E-5;9.7E-7;0;Iridium
14.34216968;0.000239;86.4005;41.6924;74.7858;285.3602;2.7132E-5;9.6E-7;0;Iridium
14.34216992;0.0002386;86.4005;41.4594;74.2052;285.9407;2.3755E-5;8.6E-7;0;Iridium
14.34217052;0.0002371;86.4006;41.2554;74.4281;285.7177;2.3158E-5;8.5E-7;0;Iridium
14.34217052;0.0002371;86.4006;41.2554;74.4281;285.7177;2.3158E-5;8.5E-7;0;Iridium
14.34217124;0.0002361;86.4007;41.0515;74.3897;285.7559;2.2909E-5;8.4E-7;0;Iridium
14.34217236;0.0002345;86.4007;40.8184;74.4687;285.6768;2.3599E-5;8.6E-7;0;Iridium
14.34217236;0.0002345;86.4007;40.8184;74.4687;285.6768;2.3599E-5;8.6E-7;0;Iridium
14.34217272;0.0002338;86.4008;40.6145;74.4422;285.7032;2.1257E-5;7.9E-7;0;Iridium
14.34217369;0.0002324;86.4008;40.3523;74.1036;286.0416;2.172E-5;8.1E-7;0;Iridium
14.34217422;0.0002315;86.4009;40.2066;73.9643;286.1808;2.0607E-5;7.7E-7;0;Iridium
14.34217482;0.0002302;86.4009;40.0027;73.6207;286.5241;1.9804E-5;7.5E-7;0;Iridium
14.34217535;0.0002289;86.401;39.7988;73.5377;286.607;1.8456E-5;7.1E-7;0;Iridium
14.34217566;0.0002273;86.4011;39.5948;73.2303;286.9142;1.6716E-5;6.7E-7;0;Iridium
14.34217599;0.0002258;86.4012;39.3618;73.4314;286.713;1.5201E-5;6.2E-7;0;Iridium
14.34217709;0.0002233;86.4013;38.9539;73.1844;286.9597;1.5241E-5;6.2E-7;0;Iridium
14.34217826;0.0002205;86.4013;38.5752;72.9118;287.2319;1.6894E-5;6.7E-7;0;Iridium
14.3421787;0.0002188;86.4014;38.3713;72.7758;287.3677;1.7588E-5;6.9E-7;0;Iridium
14.34217951;0.0002172;86.4014;38.1383;72.8595;287.2839;1.8975E-5;7.3E-7;0;Iridium
14.34218008;0.0002156;86.4015;37.9344;73.1766;286.9666;2.0496E-5;7.7E-7;0;Iridium
14.34218008;0.0002156;86.4015;37.9344;73.1766;286.9666;2.0496E-5;7.7E-7;0;Iridium
14.34218048;0.0002148;86.4015;37.7014;73.5326;286.6105;2.0762E-5;7.8E-7;0;Iridium
14.34218125;0.0002136;86.4016;37.5266;73.7256;286.4175;2.3077E-5;8.4E-7;0;Iridium
14.34218135;0.0002126;86.4016;37.2935;73.6678;286.4751;2.0847E-5;7.8E-7;0;Iridium
14.34218216;0.000211;86.4016;37.0896;73.589;286.5537;2.2954E-5;8.4E-7;0;Iridium
14.34218256;0.0002102;86.4016;36.944;73.3363;286.8064;2.3382E-5;8.5E-7;0;Iridium
14.34218249;0.00021;86.4016;36.8857;73.3464;286.7962;2.1737E-5;8.1E-7;0;Iridium
14.34218321;0.0002081;86.4016;36.6818;73.3759;286.7665;2.2875E-5;8.4E-7;0;Iridium
14.34218321;0.0002081;86.4016;36.6818;73.3759;286.7665;2.2875E-5;8.4E-7;0;Iridium
14.34218367;0.000207;86.4016;36.4779;73.323;286.8193;2.1862E-5;8.1E-7;0;Iridium
14.34218493;0.0002053;86.4016;36.274;73.1964;286.9457;2.5063E-5;9.0E-7;0;Iridium
14.34218649;0.0002027;86.4016;35.8954;73.2015;286.9403;2.6111E-5;9.3E-7;0;Iridium
14.34218666;0.0002024;86.4016;35.8662;73.1868;286.9549;2.6039E-5;9.3E-7;0;Iridium
14.34218737;0.0002012;86.4016;35.6333;73.1404;287.0012;2.4355E-5;8.8E-7;0;Iridium
14.34218859;0.0001988;86.4016;35.2546;73.3174;286.824;2.3019E-5;8.4E-7;0;Iridium
14.34218844;0.0001989;86.4016;35.1964;73.3577;286.7837;2.1507E-5;8.0E-7;0;Iridium
14.34218917;0.0001973;86.4016;34.9925;73.4356;286.7056;2.1374E-5;8.0E-7;0;Iridium
14.34218958;0.0001969;86.4016;34.7886;73.7988;286.3425;2.0119E-5;7.6E-7;0;Iridium
14.3421901;0.0001957;86.4016;34.5847;73.8461;286.295;1.8844E-5;7.3E-7;0;Iridium
14.34219035;0.0001945;86.4016;34.3517;73.9428;286.1982;1.6248E-5;6.5E-7;0;Iridium
14.34219123;0.0001918;86.4017;33.9731;73.9531;286.1876;1.481E-5;6.1E-7;0;Iridium
14.34219156;0.0001905;86.4017;33.7692;74.0525;286.0881;1.3993E-5;5.9E-7;0;Iridium
14.34219213;0.0001892;86.4017;33.5653;74.4993;285.6411;1.4527E-5;6.0E-7;0;Iridium
14.34219287;0.0001877;86.4017;33.3614;74.6996;285.4407;1.6016E-5;6.5E-7;0;Iridium
14.34219372;0.0001863;86.4017;33.1283;74.9626;285.1775;1.7958E-5;7.0E-7;0;Iridium
14.3421947;0.0001849;86.4017;32.9535;75.146;284.994;2.1497E-5;8.0E-7;0;Iridium
14.34219519;0.0001841;86.4017;32.7205;75.3774;284.7626;2.0863E-5;7.8E-7;0;Iridium
14.34219595;0.0001825;86.4017;32.5166;75.5875;284.5523;2.2838E-5;8.4E-7;0;Iridium
14.34219595;0.0001825;86.4017;32.5166;75.5875;284.5523;2.2838E-5;8.4E-7;0;Iridium
14.34219613;0.0001822;86.4017;32.3127;75.9898;284.1501;2.1497E-5;8.0E-7;0;Iridium
14.3421968;0.0001807;86.4017;32.1088;76.2626;283.8771;2.3013E-5;8.4E-7;0;Iridium
14.3421968;0.0001807;86.4017;32.1088;76.2626;283.8771;2.3013E-5;8.4E-7;0;Iridium
14.34219717;0.0001802;86.4017;31.8758;77.1476;282.9921;2.2584E-5;8.3E-7;0;Iridium
14.34219857;0.0001788;86.4016;31.5262;77.5356;282.604;2.5053E-5;9.0E-7;0;Iridium
14.34219871;0.0001787;86.4016;31.468;77.7041;282.4355;2.466E-5;8.9E-7;0;Iridium
14.34219942;0.0001783;86.4015;31.2932;77.7968;282.3427;2.576E-5;9.2E-7;0;Iridium
14.3422005;0.0001778;86.4014;31.0602;78.108;282.0315;2.7213E-5;9.6E-7;0;Iridium
14.34220087;0.0001772;86.4014;30.8562;78.17;281.9694;2.577E-5;9.2E-7;0;Iridium
14.34220087;0.0001772;86.4014;30.8562;78.17;281.9694;2.577E-5;9.2E-7;0;Iridium
14.34220159;0.0001765;86.4014;30.6523;78.7765;281.3629;2.5573E-5;9.1E-7;0;Iridium
14.34220244;0.0001756;86.4014;30.4484;79.2789;280.8605;2.6128E-5;9.3E-7;0;Iridium
14.342204;0.0001739;86.4013;30.0405;80.2041;279.9352;2.5731E-5;9.2E-7;0;Iridium
14.34219797;0.0001784;86.4012;29.8366;78.8995;281.2402;2.5006E-5;9.0E-7;0;Iridium
